ONEWEB-0144             
1 47290U 20100AJ  24317.90585961 -.00000673  00000+0 -19057-2 0  9996
2 47290  87.8846 106.4001 0001174  89.7673 270.3590 13.12441654188329
ONEWEB-0145             
1 47291U 20100AK  24317.95290662  .00000483  00000+0  13068-2 0  9996
2 47291  87.8852 106.4157 0001358  92.1931 267.9353 13.12445260188526
ONEWEB-0146             
1 47292U 20100AL  24317.94967123  .00000479  00000+0  12965-2 0  9999
2 47292  87.8851 106.4011 0001942  95.1341 265.0009 13.12445396188439
ONEWEB-0147             
1 47293U 20100AM  24317.91558966 -.00000215  00000+0 -63227-3 0  9996
2 47293  87.8845 106.3962 0001449  81.6830 278.4463 13.12446516188327
ONEWEB-0115             
1 48042U 21025A   24317.86417722 -.00006600  00000+0 -18114-1 0  9991
2 48042  87.8907  75.8577 0001376  94.3362 265.7924 13.13502020177289
ONEWEB-0152             
1 48043U 21025B   24317.87687560  .00000196  00000+0  50230-3 0  9991
2 48043  87.8915  75.8588 0001628  97.3780 262.7534 13.13472570177244
ONEWEB-0153             
1 48044U 21025C   24317.85466067  .00000357  00000+0  94389-3 0  9999
2 48044  87.8918  75.8548 0001517 100.3903 259.7397 13.13470412177238
ONEWEB-0154             
1 48045U 21025D   24317.85148526  .00000334  00000+0  87834-3 0  9999
2 48045  87.8911  75.8622 0001624  97.4516 262.6797 13.13473214177195
