<?xml version="1.0" encoding="UTF-8"?>
<ndm xmlns:xsi="http://www.w3.org/2001/XMLSchema-instance" xsi:noNamespaceSchemaLocation="https://sanaregistry.org/r/ndmxml_unqualified/ndmxml-2.0.0-master-2.0.xsd">
<omm id="CCSDS_OMM_VERS" version="2.0">
<header><CREATION_DATE/><ORIGINATOR/></header><body><segment><metadata><OBJECT_NAME>ONEWEB-0144</OBJECT_NAME><OBJECT_ID>2020-100AJ</OBJECT_ID><CENTER_NAME>EARTH</CENTER_NAME><REF_FRAME>TEME</REF_FRAME><TIME_SYSTEM>UTC</TIME_SYSTEM><MEAN_ELEMENT_THEORY>SGP4</MEAN_ELEMENT_THEORY></metadata><data><meanElements><EPOCH>2024-11-12T21:44:26.270304</EPOCH><MEAN_MOTION>13.12441654</MEAN_MOTION><ECCENTRICITY>.0001174</ECCENTRICITY><INCLINATION>87.8846</INCLINATION><RA_OF_ASC_NODE>106.4001</RA_OF_ASC_NODE><ARG_OF_PERICENTER>89.7673</ARG_OF_PERICENTER><MEAN_ANOMALY>270.3590</MEAN_ANOMALY></meanElements><tleParameters><EPHEMERIS_TYPE>0</EPHEMERIS_TYPE><CLASSIFICATION_TYPE>U</CLASSIFICATION_TYPE><NORAD_CAT_ID>47290</NORAD_CAT_ID><ELEMENT_SET_NO>999</ELEMENT_SET_NO><REV_AT_EPOCH>18832</REV_AT_EPOCH><BSTAR>-.19057E-2</BSTAR><MEAN_MOTION_DOT>-.673E-5</MEAN_MOTION_DOT><MEAN_MOTION_DDOT>0</MEAN_MOTION_DDOT></tleParameters></data></segment></body></omm>
<omm id="CCSDS_OMM_VERS" version="2.0">
<header><CREATION_DATE/><ORIGINATOR/></header><body><segment><metadata><OBJECT_NAME>ONEWEB-0145</OBJECT_NAME><OBJECT_ID>2020-100AK</OBJECT_ID><CENTER_NAME>EARTH</CENTER_NAME><REF_FRAME>TEME</REF_FRAME><TIME_SYSTEM>UTC</TIME_SYSTEM><MEAN_ELEMENT_THEORY>SGP4</MEAN_ELEMENT_THEORY></metadata><data><meanElements><EPOCH>2024-11-12T22:52:11.131968</EPOCH><MEAN_MOTION>13.12445260</MEAN_MOTION><ECCENTRICITY>.0001358</ECCENTRICITY><INCLINATION>87.8852</INCLINATION><RA_OF_ASC_NODE>106.4157</RA_OF_ASC_NODE><ARG_OF_PERICENTER>92.1931</ARG_OF_PERICENTER><MEAN_ANOMALY>267.9353</MEAN_ANOMALY></meanElements><tleParameters><EPHEMERIS_TYPE>0</EPHEMERIS_TYPE><CLASSIFICATION_TYPE>U</CLASSIFICATION_TYPE><NORAD_CAT_ID>47291</NORAD_CAT_ID><ELEMENT_SET_NO>999</ELEMENT_SET_NO><REV_AT_EPOCH>18852</REV_AT_EPOCH><BSTAR>.13068E-2</BSTAR><MEAN_MOTION_DOT>.483E-5</MEAN_MOTION_DOT><MEAN_MOTION_DDOT>0</MEAN_MOTION_DDOT></tleParameters></data></segment></body></omm>
<omm id="CCSDS_OMM_VERS" version="2.0">
<header><CREATION_DATE/><ORIGINATOR/></header><body><segment><metadata><OBJECT_NAME>ONEWEB-0146</OBJECT_NAME><OBJECT_ID>2020-100AL</OBJECT_ID><CENTER_NAME>EARTH</CENTER_NAME><REF_FRAME>TEME</REF_FRAME><TIME_SYSTEM>UTC</TIME_SYSTEM><MEAN_ELEMENT_THEORY>SGP4</MEAN_ELEMENT_THEORY></metadata><data><meanElements><EPOCH>2024-11-12T22:47:31.594272</EPOCH><MEAN_MOTION>13.12445396</MEAN_MOTION><ECCENTRICITY>.0001942</ECCENTRICITY><INCLINATION>87.8851</INCLINATION><RA_OF_ASC_NODE>106.4011</RA_OF_ASC_NODE><ARG_OF_PERICENTER>95.1341</ARG_OF_PERICENTER><MEAN_ANOMALY>265.0009</MEAN_ANOMALY></meanElements><tleParameters><EPHEMERIS_TYPE>0</EPHEMERIS_TYPE><CLASSIFICATION_TYPE>U</CLASSIFICATION_TYPE><NORAD_CAT_ID>47292</NORAD_CAT_ID><ELEMENT_SET_NO>999</ELEMENT_SET_NO><REV_AT_EPOCH>18843</REV_AT_EPOCH><BSTAR>.12965E-2</BSTAR><MEAN_MOTION_DOT>.479E-5</MEAN_MOTION_DOT><MEAN_MOTION_DDOT>0</MEAN_MOTION_DDOT></tleParameters></data></segment></body></omm>
<omm id="CCSDS_OMM_VERS" version="2.0">
<header><CREATION_DATE/><ORIGINATOR/></header><body><segment><metadata><OBJECT_NAME>ONEWEB-0147</OBJECT_NAME><OBJECT_ID>2020-100AM</OBJECT_ID><CENTER_NAME>EARTH</CENTER_NAME><REF_FRAME>TEME</REF_FRAME><TIME_SYSTEM>UTC</TIME_SYSTEM><MEAN_ELEMENT_THEORY>SGP4</MEAN_ELEMENT_THEORY></metadata><data><meanElements><EPOCH>2024-11-12T21:58:26.946624</EPOCH><MEAN_MOTION>13.12446516</MEAN_MOTION><ECCENTRICITY>.0001449</ECCENTRICITY><INCLINATION>87.8845</INCLINATION><RA_OF_ASC_NODE>106.3962</RA_OF_ASC_NODE><ARG_OF_PERICENTER>81.6830</ARG_OF_PERICENTER><MEAN_ANOMALY>278.4463</MEAN_ANOMALY></meanElements><tleParameters><EPHEMERIS_TYPE>0</EPHEMERIS_TYPE><CLASSIFICATION_TYPE>U</CLASSIFICATION_TYPE><NORAD_CAT_ID>47293</NORAD_CAT_ID><ELEMENT_SET_NO>999</ELEMENT_SET_NO><REV_AT_EPOCH>18832</REV_AT_EPOCH><BSTAR>-.63227E-3</BSTAR><MEAN_MOTION_DOT>-.215E-5</MEAN_MOTION_DOT><MEAN_MOTION_DDOT>0</MEAN_MOTION_DDOT></tleParameters></data></segment></body></omm>
<omm id="CCSDS_OMM_VERS" version="2.0">
<header><CREATION_DATE/><ORIGINATOR/></header><body><segment><metadata><OBJECT_NAME>ONEWEB-0115</OBJECT_NAME><OBJECT_ID>2021-025A</OBJECT_ID><CENTER_NAME>EARTH</CENTER_NAME><REF_FRAME>TEME</REF_FRAME><TIME_SYSTEM>UTC</TIME_SYSTEM><MEAN_ELEMENT_THEORY>SGP4</MEAN_ELEMENT_THEORY></metadata><data><meanElements><EPOCH>2024-11-12T20:44:24.911808</EPOCH><MEAN_MOTION>13.13502020</MEAN_MOTION><ECCENTRICITY>.0001376</ECCENTRICITY><INCLINATION>87.8907</INCLINATION><RA_OF_ASC_NODE>75.8577</RA_OF_ASC_NODE><ARG_OF_PERICENTER>94.3362</ARG_OF_PERICENTER><MEAN_ANOMALY>265.7924</MEAN_ANOMALY></meanElements><tleParameters><EPHEMERIS_TYPE>0</EPHEMERIS_TYPE><CLASSIFICATION_TYPE>U</CLASSIFICATION_TYPE><NORAD_CAT_ID>48042</NORAD_CAT_ID><ELEMENT_SET_NO>999</ELEMENT_SET_NO><REV_AT_EPOCH>17728</REV_AT_EPOCH><BSTAR>-.18114E-1</BSTAR><MEAN_MOTION_DOT>-.66E-4</MEAN_MOTION_DOT><MEAN_MOTION_DDOT>0</MEAN_MOTION_DDOT></tleParameters></data></segment></body></omm>
<omm id="CCSDS_OMM_VERS" version="2.0">
<header><CREATION_DATE/><ORIGINATOR/></header><body><segment><metadata><OBJECT_NAME>ONEWEB-0152</OBJECT_NAME><OBJECT_ID>2021-025B</OBJECT_ID><CENTER_NAME>EARTH</CENTER_NAME><REF_FRAME>TEME</REF_FRAME><TIME_SYSTEM>UTC</TIME_SYSTEM><MEAN_ELEMENT_THEORY>SGP4</MEAN_ELEMENT_THEORY></metadata><data><meanElements><EPOCH>2024-11-12T21:02:42.051840</EPOCH><MEAN_MOTION>13.13472570</MEAN_MOTION><ECCENTRICITY>.0001628</ECCENTRICITY><INCLINATION>87.8915</INCLINATION><RA_OF_ASC_NODE>75.8588</RA_OF_ASC_NODE><ARG_OF_PERICENTER>97.3780</ARG_OF_PERICENTER><MEAN_ANOMALY>262.7534</MEAN_ANOMALY></meanElements><tleParameters><EPHEMERIS_TYPE>0</EPHEMERIS_TYPE><CLASSIFICATION_TYPE>U</CLASSIFICATION_TYPE><NORAD_CAT_ID>48043</NORAD_CAT_ID><ELEMENT_SET_NO>999</ELEMENT_SET_NO><REV_AT_EPOCH>17724</REV_AT_EPOCH><BSTAR>.5023E-3</BSTAR><MEAN_MOTION_DOT>.196E-5</MEAN_MOTION_DOT><MEAN_MOTION_DDOT>0</MEAN_MOTION_DDOT></tleParameters></data></segment></body></omm>
<omm id="CCSDS_OMM_VERS" version="2.0">
<header><CREATION_DATE/><ORIGINATOR/></header><body><segment><metadata><OBJECT_NAME>ONEWEB-0153</OBJECT_NAME><OBJECT_ID>2021-025C</OBJECT_ID><CENTER_NAME>EARTH</CENTER_NAME><REF_FRAME>TEME</REF_FRAME><TIME_SYSTEM>UTC</TIME_SYSTEM><MEAN_ELEMENT_THEORY>SGP4</MEAN_ELEMENT_THEORY></metadata><data><meanElements><EPOCH>2024-11-12T20:30:42.681888</EPOCH><MEAN_MOTION>13.13470412</MEAN_MOTION><ECCENTRICITY>.0001517</ECCENTRICITY><INCLINATION>87.8918</INCLINATION><RA_OF_ASC_NODE>75.8548</RA_OF_ASC_NODE><ARG_OF_PERICENTER>100.3903</ARG_OF_PERICENTER><MEAN_ANOMALY>259.7397</MEAN_ANOMALY></meanElements><tleParameters><EPHEMERIS_TYPE>0</EPHEMERIS_TYPE><CLASSIFICATION_TYPE>U</CLASSIFICATION_TYPE><NORAD_CAT_ID>48044</NORAD_CAT_ID><ELEMENT_SET_NO>999</ELEMENT_SET_NO><REV_AT_EPOCH>17723</REV_AT_EPOCH><BSTAR>.94389E-3</BSTAR><MEAN_MOTION_DOT>.357E-5</MEAN_MOTION_DOT><MEAN_MOTION_DDOT>0</MEAN_MOTION_DDOT></tleParameters></data></segment></body></omm>
<omm id="CCSDS_OMM_VERS" version="2.0">
<header><CREATION_DATE/><ORIGINATOR/></header><body><segment><metadata><OBJECT_NAME>ONEWEB-0154</OBJECT_NAME><OBJECT_ID>2021-025D</OBJECT_ID><CENTER_NAME>EARTH</CENTER_NAME><REF_FRAME>TEME</REF_FRAME><TIME_SYSTEM>UTC</TIME_SYSTEM><MEAN_ELEMENT_THEORY>SGP4</MEAN_ELEMENT_THEORY></metadata><data><meanElements><EPOCH>2024-11-12T20:26:08.326464</EPOCH><MEAN_MOTION>13.13473214</MEAN_MOTION><ECCENTRICITY>.0001624</ECCENTRICITY><INCLINATION>87.8911</INCLINATION><RA_OF_ASC_NODE>75.8622</RA_OF_ASC_NODE><ARG_OF_PERICENTER>97.4516</ARG_OF_PERICENTER><MEAN_ANOMALY>262.6797</MEAN_ANOMALY></meanElements><tleParameters><EPHEMERIS_TYPE>0</EPHEMERIS_TYPE><CLASSIFICATION_TYPE>U</CLASSIFICATION_TYPE><NORAD_CAT_ID>48045</NORAD_CAT_ID><ELEMENT_SET_NO>999</ELEMENT_SET_NO><REV_AT_EPOCH>17719</REV_AT_EPOCH><BSTAR>.87834E-3</BSTAR><MEAN_MOTION_DOT>.334E-5</MEAN_MOTION_DOT><MEAN_MOTION_DDOT>0</MEAN_MOTION_DDOT></tleParameters></data></segment></body></omm>

</ndm>
